*******************************************************************************
Ephemeris / WWW_USER Mon Mar 24 08:27:36 2025 Pasadena, USA      / Horizons    
*******************************************************************************
Target body name: (2018 VS8)                      {source: JPL#8}
Center body name: Earth (399)                     {source: DE441}
Center-site name: Mauna Kea
*******************************************************************************
Start time      : A.D. 2018-Nov-23 03:51:00.0000 UT      
Stop  time      : A.D. 2018-Nov-23 16:25:00.0000 UT      
Step-size       : 1 minutes
*******************************************************************************
Target pole/equ : undefined
Target radii    : undefined                                                    
Center geodetic : 204.5278, 19.8260847, 4.21024   {E-lon(deg),Lat(deg),Alt(km)}
Center cylindric: 204.5278, 6006.35451, 2151.0229 {E-lon(deg),Dxy(km),Dz(km)}
Center pole/equ : ITRF93                          {East-longitude positive}
Center radii    : 6378.137, 6378.137, 6356.752 km {Equator_a, b, pole_c}       
Target primary  : Sun
Vis. interferer : MOON (R_eq= 1737.400) km        {source: DE441}
Rel. light bend : Sun                             {source: DE441}
Rel. lght bnd GM: 1.3271E+11 km^3/s^2                                          
Small-body perts: Yes                             {source: SB441-N16}
Atmos refraction: NO (AIRLESS)
RA format       : HMS
Time format     : CAL 
Calendar mode   : Mixed Julian/Gregorian
RTS-only print  : NO       
EOP file        : eop.250321.p250617                                           
EOP coverage    : DATA-BASED 1962-JAN-20 TO 2025-MAR-21. PREDICTS-> 2025-JUN-16
Units conversion: 1 au= 149597870.700 km, c= 299792.458 km/s, 1 day= 86400.0 s 
Table cut-offs 1: Elevation (-90.0deg=NO ),Airmass (>38.000=NO), Daylight (YES)
Table cut-offs 2: Solar elongation (  0.0,180.0=NO ),Local Hour Angle( 0.0=NO )
Table cut-offs 3: RA/DEC angular rate (     0.0=NO )                           
*******************************************************************************
Initial IAU76/J2000 heliocentric ecliptic osculating elements (au, days, deg.):
  EPOCH=  2458433.5 ! 2018-Nov-11.00 (TDB)         Residual RMS= .33953        
   EC= .5263784885368822   QR= .9373233613851428   TP= 2458465.1575556668      
   OM= 53.89076972236643   W=  33.71683445616237   IN= 3.430463171034721       
  Equivalent ICRF heliocentric cartesian coordinates (au, au/d):
   X= 6.888560011548344E-01  Y= 6.928655939663307E-01  Z= 2.929974091538562E-01
  VX=-1.813811938800288E-02 VY= 8.693003909227039E-03 VZ= 5.111678677431928E-03
Asteroid physical parameters (km, seconds, rotational period in hours):        
   GM= n.a.                RAD= n.a.               ROTPER= n.a.                
   H= 27.2                 G= .150                 B-V= n.a.                   
                           ALBEDO= n.a.            STYP= n.a.                  
*******************************************************************************
 Date__(UT)__HR:MN     R.A._________(ICRF)_________DEC
******************************************************
$$SOE
 2018-Nov-23 12:03  m  12 49 33.266697 +10 47 15.76413
 2018-Nov-23 12:04  m  12 49 33.482387 +10 47 14.08388
 2018-Nov-23 12:05  m  12 49 33.697727 +10 47 12.40416
 2018-Nov-23 12:06  m  12 49 33.912717 +10 47 10.72497
 2018-Nov-23 12:07  m  12 49 34.127356 +10 47 09.04631
 2018-Nov-23 12:08  m  12 49 34.341644 +10 47 07.36817
 2018-Nov-23 12:09  m  12 49 34.555582 +10 47 05.69054
 2018-Nov-23 12:10  m  12 49 34.769168 +10 47 04.01342
 2018-Nov-23 12:11  m  12 49 34.982402 +10 47 02.33682
 2018-Nov-23 12:12  m  12 49 35.195285 +10 47 00.66072
 2018-Nov-23 12:13  m  12 49 35.407816 +10 46 58.98512
 2018-Nov-23 12:14  m  12 49 35.619995 +10 46 57.31002
 2018-Nov-23 12:15  m  12 49 35.831822 +10 46 55.63541
 2018-Nov-23 12:16  m  12 49 36.043297 +10 46 53.96129
 2018-Nov-23 12:17  m  12 49 36.254419 +10 46 52.28766
 2018-Nov-23 12:18  m  12 49 36.465188 +10 46 50.61451
 2018-Nov-23 12:19  m  12 49 36.675604 +10 46 48.94184
 2018-Nov-23 12:20  m  12 49 36.885667 +10 46 47.26964
 2018-Nov-23 12:21  m  12 49 37.095377 +10 46 45.59791
 2018-Nov-23 12:22  m  12 49 37.304734 +10 46 43.92665
 2018-Nov-23 12:23  m  12 49 37.513737 +10 46 42.25585
 2018-Nov-23 12:24  m  12 49 37.722387 +10 46 40.58551
 2018-Nov-23 12:25  m  12 49 37.930683 +10 46 38.91562
 2018-Nov-23 12:26  m  12 49 38.138625 +10 46 37.24619
 2018-Nov-23 12:27  m  12 49 38.346213 +10 46 35.57720
 2018-Nov-23 12:28  m  12 49 38.553447 +10 46 33.90866
 2018-Nov-23 12:29  m  12 49 38.760327 +10 46 32.24056
 2018-Nov-23 12:30  m  12 49 38.966853 +10 46 30.57289
 2018-Nov-23 12:31  m  12 49 39.173024 +10 46 28.90565
 2018-Nov-23 12:32  m  12 49 39.378841 +10 46 27.23885
 2018-Nov-23 12:33  m  12 49 39.584303 +10 46 25.57246
 2018-Nov-23 12:34  m  12 49 39.789411 +10 46 23.90650
 2018-Nov-23 12:35  m  12 49 39.994165 +10 46 22.24095
 2018-Nov-23 12:36  r  12 49 40.198563 +10 46 20.57582
 2018-Nov-23 12:37  m  12 49 40.402607 +10 46 18.91109
 2018-Nov-23 12:38  m  12 49 40.606296 +10 46 17.24677
 2018-Nov-23 12:39  m  12 49 40.809630 +10 46 15.58285
 2018-Nov-23 12:40  m  12 49 41.012609 +10 46 13.91933
 2018-Nov-23 12:41  m  12 49 41.215234 +10 46 12.25620
 2018-Nov-23 12:42  m  12 49 41.417503 +10 46 10.59346
 2018-Nov-23 12:43  m  12 49 41.619418 +10 46 08.93110
 2018-Nov-23 12:44  m  12 49 41.820978 +10 46 07.26913
 2018-Nov-23 12:45  m  12 49 42.022182 +10 46 05.60754
 2018-Nov-23 12:46  m  12 49 42.223032 +10 46 03.94631
 2018-Nov-23 12:47  m  12 49 42.423527 +10 46 02.28546
 2018-Nov-23 12:48  m  12 49 42.623667 +10 46 00.62498
 2018-Nov-23 12:49  m  12 49 42.823452 +10 45 58.96486
 2018-Nov-23 12:50  m  12 49 43.022882 +10 45 57.30509
 2018-Nov-23 12:51  m  12 49 43.221957 +10 45 55.64568
 2018-Nov-23 12:52  m  12 49 43.420678 +10 45 53.98663
 2018-Nov-23 12:53  m  12 49 43.619044 +10 45 52.32791
 2018-Nov-23 12:54  m  12 49 43.817055 +10 45 50.66955
 2018-Nov-23 12:55  m  12 49 44.014711 +10 45 49.01152
 2018-Nov-23 12:56  m  12 49 44.212013 +10 45 47.35382
 2018-Nov-23 12:57  m  12 49 44.408960 +10 45 45.69646
 2018-Nov-23 12:58  m  12 49 44.605553 +10 45 44.03943
 2018-Nov-23 12:59  m  12 49 44.801791 +10 45 42.38272
 2018-Nov-23 13:00  m  12 49 44.997675 +10 45 40.72633
 2018-Nov-23 13:01  m  12 49 45.193205 +10 45 39.07026
 2018-Nov-23 13:02  m  12 49 45.388381 +10 45 37.41450
 2018-Nov-23 13:03  m  12 49 45.583203 +10 45 35.75904
 2018-Nov-23 13:04  m  12 49 45.777671 +10 45 34.10390
 2018-Nov-23 13:05  m  12 49 45.971785 +10 45 32.44905
 2018-Nov-23 13:06  m  12 49 46.165545 +10 45 30.79450
 2018-Nov-23 13:07  m  12 49 46.358952 +10 45 29.14024
 2018-Nov-23 13:08  m  12 49 46.552006 +10 45 27.48628
 2018-Nov-23 13:09  m  12 49 46.744706 +10 45 25.83260
 2018-Nov-23 13:10  m  12 49 46.937053 +10 45 24.17920
 2018-Nov-23 13:11  m  12 49 47.129047 +10 45 22.52608
 2018-Nov-23 13:12  m  12 49 47.320688 +10 45 20.87323
 2018-Nov-23 13:13  m  12 49 47.511977 +10 45 19.22065
 2018-Nov-23 13:14  m  12 49 47.702913 +10 45 17.56834
 2018-Nov-23 13:15  m  12 49 47.893497 +10 45 15.91630
 2018-Nov-23 13:16  m  12 49 48.083729 +10 45 14.26451
 2018-Nov-23 13:17  m  12 49 48.273609 +10 45 12.61298
 2018-Nov-23 13:18  m  12 49 48.463137 +10 45 10.96170
 2018-Nov-23 13:19  m  12 49 48.652313 +10 45 09.31066
 2018-Nov-23 13:20  m  12 49 48.841138 +10 45 07.65987
 2018-Nov-23 13:21  m  12 49 49.029612 +10 45 06.00933
 2018-Nov-23 13:22  m  12 49 49.217735 +10 45 04.35901
 2018-Nov-23 13:23  m  12 49 49.405508 +10 45 02.70893
 2018-Nov-23 13:24  m  12 49 49.592930 +10 45 01.05908
 2018-Nov-23 13:25  m  12 49 49.780001 +10 44 59.40945
 2018-Nov-23 13:26  m  12 49 49.966723 +10 44 57.76005
 2018-Nov-23 13:27  m  12 49 50.153095 +10 44 56.11086
 2018-Nov-23 13:28  m  12 49 50.339117 +10 44 54.46189
 2018-Nov-23 13:29  m  12 49 50.524790 +10 44 52.81312
 2018-Nov-23 13:30  m  12 49 50.710114 +10 44 51.16456
 2018-Nov-23 13:31  m  12 49 50.895090 +10 44 49.51621
 2018-Nov-23 13:32  m  12 49 51.079716 +10 44 47.86805
 2018-Nov-23 13:33  m  12 49 51.263995 +10 44 46.22009
 2018-Nov-23 13:34  m  12 49 51.447926 +10 44 44.57232
 2018-Nov-23 13:35  m  12 49 51.631509 +10 44 42.92474
 2018-Nov-23 13:36  m  12 49 51.814745 +10 44 41.27734
 2018-Nov-23 13:37  m  12 49 51.997634 +10 44 39.63012
 2018-Nov-23 13:38  m  12 49 52.180176 +10 44 37.98307
 2018-Nov-23 13:39  m  12 49 52.362372 +10 44 36.33620
 2018-Nov-23 13:40  m  12 49 52.544221 +10 44 34.68950
 2018-Nov-23 13:41  m  12 49 52.725725 +10 44 33.04297
 2018-Nov-23 13:42  m  12 49 52.906884 +10 44 31.39659
 2018-Nov-23 13:43  m  12 49 53.087697 +10 44 29.75037
 2018-Nov-23 13:44  m  12 49 53.268166 +10 44 28.10431
 2018-Nov-23 13:45  m  12 49 53.448290 +10 44 26.45840
 2018-Nov-23 13:46  m  12 49 53.628071 +10 44 24.81263
 2018-Nov-23 13:47  m  12 49 53.807507 +10 44 23.16701
 2018-Nov-23 13:48  m  12 49 53.986601 +10 44 21.52153
 2018-Nov-23 13:49  m  12 49 54.165351 +10 44 19.87618
 2018-Nov-23 13:50  m  12 49 54.343759 +10 44 18.23096
 2018-Nov-23 13:51  m  12 49 54.521825 +10 44 16.58588
 2018-Nov-23 13:52  m  12 49 54.699549 +10 44 14.94091
 2018-Nov-23 13:53  m  12 49 54.876931 +10 44 13.29607
 2018-Nov-23 13:54  m  12 49 55.053973 +10 44 11.65135
 2018-Nov-23 13:55  m  12 49 55.230674 +10 44 10.00674
 2018-Nov-23 13:56  m  12 49 55.407035 +10 44 08.36224
 2018-Nov-23 13:57  m  12 49 55.583056 +10 44 06.71785
 2018-Nov-23 13:58  m  12 49 55.758737 +10 44 05.07356
 2018-Nov-23 13:59  m  12 49 55.934080 +10 44 03.42937
 2018-Nov-23 14:00  m  12 49 56.109084 +10 44 01.78527
 2018-Nov-23 14:01  m  12 49 56.283751 +10 44 00.14127
 2018-Nov-23 14:02  m  12 49 56.458079 +10 43 58.49735
 2018-Nov-23 14:03  m  12 49 56.632071 +10 43 56.85353
 2018-Nov-23 14:04  m  12 49 56.805726 +10 43 55.20978
 2018-Nov-23 14:05  m  12 49 56.979044 +10 43 53.56611
